<?xml version="1.0" encoding="UTF-8" standalone="no" ?>
<gpx xmlns="http://www.topografix.com/GPX/1/1" xmlns:gpxx="http://www.garmin.com/xmlschemas/GpxExtensions/v3" xmlns:gpxtpx="http://www.garmin.com/xmlschemas/TrackPointExtension/v1" creator="mapstogpx.com" version="1.1" xmlns:xsi="http://www.w3.org/2001/XMLSchema-instance" xsi:schemaLocation="http://www.topografix.com/GPX/1/1 http://www.topografix.com/GPX/1/1/gpx.xsd http://www.garmin.com/xmlschemas/GpxExtensions/v3 http://www.garmin.com/xmlschemas/GpxExtensionsv3.xsd http://www.garmin.com/xmlschemas/TrackPointExtension/v1 http://www.garmin.com/xmlschemas/TrackPointExtensionv1.xsd">
  <metadata>
    <link href="http://www.mapstogpx.com">
      <text>Sverrir Sigmundarson</text>
    </link>
    <!--desc>Powered by Google, ©2026 Google</desc-->
    <!--copyright author="Google Inc">
    	<year>2026</year>
    	<license>https://developers.google.com/maps/terms</license>
    </copyright-->
    <!--url>https://www.google.com/maps/dir/BG+Mart+Superstore,+21+Mobolaji+Bank+Anthony+Way,+Ikeja+GRA,+Lagos+101233,+Lagos/Shitta+Roundabout+Park,+5+Akerele+St,+Surulere,+Lagos+101241,+Lagos/@6.5367163,3.3397633,14z/data=!3m1!4b1!4m14!4m13!1m5!1m1!1s0x103b9273a431a2cd:0xcba02345b29c4c!2m2!1d3.3620728!2d6.5742149!1m5!1m1!1s0x103b8c14b83f274d:0xc4608bf11f9a5817!2m2!1d3.3585173!2d6.4991563!3e2?entry=tts&g_ep=EgoyMDI2MDkyMi4wKgBIAVAD&skid=9022f879-210b-4262-b9bf-52822ee319bc&hl=en</url-->
    <time>2026-09-24T21:57:59Z</time>
  </metadata>
  <wpt lat="6.5742149" lon="3.3620728">
    <name>BG Mart Superstore</name>
    <desc>BG Mart Superstore, 21 Mobolaji Bank Anthony Way, Ikeja GRA, Lagos 101233, Lagos, Nigeria</desc>
  </wpt>
  <wpt lat="6.4991563" lon="3.3585173">
    <name>Shitta Roundabout Park</name>
    <desc>Shitta Roundabout Park, 5 Akerele St, Surulere, Lagos 101241, Lagos, Nigeria</desc>
  </wpt>
<trk>
  <name>BG Mart Superstore to Shitta Roundabout Park</name>
  <number>1</number>
  <trkseg>
  <trkpt lat="6.5742179" lon="3.3620813">
    <name>TP001</name>
  </trkpt>
  <trkpt lat="6.57406" lon="3.36214">
    <name>TP002</name>
  </trkpt>
  <trkpt lat="6.5739" lon="3.3622">
    <name>TP003</name>
  </trkpt>
  <trkpt lat="6.5738954" lon="3.3621966">
    <name>TP004</name>
  </trkpt>
  <trkpt lat="6.57394" lon="3.36232">
    <name>TP005</name>
  </trkpt>
  <trkpt lat="6.574" lon="3.36249">
    <name>TP006</name>
  </trkpt>
  <trkpt lat="6.5740044" lon="3.3624895">
    <name>TP007</name>
  </trkpt>
  <trkpt lat="6.57386" lon="3.36259">
    <name>TP008</name>
  </trkpt>
  <trkpt lat="6.57372" lon="3.36271">
    <name>TP009</name>
  </trkpt>
  <trkpt lat="6.57357" lon="3.36285">
    <name>TP010</name>
  </trkpt>
  <trkpt lat="6.57346" lon="3.36297">
    <name>TP011</name>
  </trkpt>
  <trkpt lat="6.57332" lon="3.36311">
    <name>TP012</name>
  </trkpt>
  <trkpt lat="6.57313" lon="3.36348">
    <name>TP013</name>
  </trkpt>
  <trkpt lat="6.57292" lon="3.36399">
    <name>TP014</name>
  </trkpt>
  <trkpt lat="6.57279" lon="3.36434">
    <name>TP015</name>
  </trkpt>
  <trkpt lat="6.57274" lon="3.36448">
    <name>TP016</name>
  </trkpt>
  <trkpt lat="6.57249" lon="3.3652">
    <name>TP017</name>
  </trkpt>
  <trkpt lat="6.57221" lon="3.36599">
    <name>TP018</name>
  </trkpt>
  <trkpt lat="6.57201" lon="3.36653">
    <name>TP019</name>
  </trkpt>
  <trkpt lat="6.57176" lon="3.36722">
    <name>TP020</name>
  </trkpt>
  <trkpt lat="6.5717553" lon="3.3672187">
    <name>TP021</name>
  </trkpt>
  <trkpt lat="6.5717" lon="3.36725">
    <name>TP022</name>
  </trkpt>
  <trkpt lat="6.57147" lon="3.36739">
    <name>TP023</name>
  </trkpt>
  <trkpt lat="6.57122" lon="3.36733">
    <name>TP024</name>
  </trkpt>
  <trkpt lat="6.57111" lon="3.36729">
    <name>TP025</name>
  </trkpt>
  <trkpt lat="6.57089" lon="3.36722">
    <name>TP026</name>
  </trkpt>
  <trkpt lat="6.57051" lon="3.36709">
    <name>TP027</name>
  </trkpt>
  <trkpt lat="6.57048" lon="3.36708">
    <name>TP028</name>
  </trkpt>
  <trkpt lat="6.57035" lon="3.36704">
    <name>TP029</name>
  </trkpt>
  <trkpt lat="6.56998" lon="3.36695">
    <name>TP030</name>
  </trkpt>
  <trkpt lat="6.56991" lon="3.36693">
    <name>TP031</name>
  </trkpt>
  <trkpt lat="6.56946" lon="3.36682">
    <name>TP032</name>
  </trkpt>
  <trkpt lat="6.56932" lon="3.36679">
    <name>TP033</name>
  </trkpt>
  <trkpt lat="6.56895" lon="3.36672">
    <name>TP034</name>
  </trkpt>
  <trkpt lat="6.56843" lon="3.36665">
    <name>TP035</name>
  </trkpt>
  <trkpt lat="6.56813" lon="3.36661">
    <name>TP036</name>
  </trkpt>
  <trkpt lat="6.56805" lon="3.36661">
    <name>TP037</name>
  </trkpt>
  <trkpt lat="6.56745" lon="3.36661">
    <name>TP038</name>
  </trkpt>
  <trkpt lat="6.56725" lon="3.36662">
    <name>TP039</name>
  </trkpt>
  <trkpt lat="6.56686" lon="3.3666">
    <name>TP040</name>
  </trkpt>
  <trkpt lat="6.56668" lon="3.36659">
    <name>TP041</name>
  </trkpt>
  <trkpt lat="6.56664" lon="3.36659">
    <name>TP042</name>
  </trkpt>
  <trkpt lat="6.5665" lon="3.36659">
    <name>TP043</name>
  </trkpt>
  <trkpt lat="6.56648" lon="3.36659">
    <name>TP044</name>
  </trkpt>
  <trkpt lat="6.56629" lon="3.36659">
    <name>TP045</name>
  </trkpt>
  <trkpt lat="6.5658" lon="3.3666">
    <name>TP046</name>
  </trkpt>
  <trkpt lat="6.56476" lon="3.36661">
    <name>TP047</name>
  </trkpt>
  <trkpt lat="6.56463" lon="3.36661">
    <name>TP048</name>
  </trkpt>
  <trkpt lat="6.564" lon="3.36662">
    <name>TP049</name>
  </trkpt>
  <trkpt lat="6.5636" lon="3.36663">
    <name>TP050</name>
  </trkpt>
  <trkpt lat="6.56352" lon="3.36663">
    <name>TP051</name>
  </trkpt>
  <trkpt lat="6.56322" lon="3.36663">
    <name>TP052</name>
  </trkpt>
  <trkpt lat="6.56111" lon="3.36668">
    <name>TP053</name>
  </trkpt>
  <trkpt lat="6.56085" lon="3.36669">
    <name>TP054</name>
  </trkpt>
  <trkpt lat="6.55992" lon="3.36669">
    <name>TP055</name>
  </trkpt>
  <trkpt lat="6.5595" lon="3.3667">
    <name>TP056</name>
  </trkpt>
  <trkpt lat="6.55916" lon="3.36672">
    <name>TP057</name>
  </trkpt>
  <trkpt lat="6.55898" lon="3.36673">
    <name>TP058</name>
  </trkpt>
  <trkpt lat="6.55863" lon="3.36674">
    <name>TP059</name>
  </trkpt>
  <trkpt lat="6.55858" lon="3.36674">
    <name>TP060</name>
  </trkpt>
  <trkpt lat="6.55843" lon="3.36674">
    <name>TP061</name>
  </trkpt>
  <trkpt lat="6.55838" lon="3.36674">
    <name>TP062</name>
  </trkpt>
  <trkpt lat="6.55827" lon="3.36674">
    <name>TP063</name>
  </trkpt>
  <trkpt lat="6.55796" lon="3.36674">
    <name>TP064</name>
  </trkpt>
  <trkpt lat="6.55778" lon="3.36674">
    <name>TP065</name>
  </trkpt>
  <trkpt lat="6.5576" lon="3.36674">
    <name>TP066</name>
  </trkpt>
  <trkpt lat="6.55729" lon="3.36674">
    <name>TP067</name>
  </trkpt>
  <trkpt lat="6.55707" lon="3.36674">
    <name>TP068</name>
  </trkpt>
  <trkpt lat="6.55698" lon="3.36675">
    <name>TP069</name>
  </trkpt>
  <trkpt lat="6.5568" lon="3.36676">
    <name>TP070</name>
  </trkpt>
  <trkpt lat="6.55665" lon="3.36677">
    <name>TP071</name>
  </trkpt>
  <trkpt lat="6.5563" lon="3.36679">
    <name>TP072</name>
  </trkpt>
  <trkpt lat="6.55581" lon="3.36679">
    <name>TP073</name>
  </trkpt>
  <trkpt lat="6.55528" lon="3.3668">
    <name>TP074</name>
  </trkpt>
  <trkpt lat="6.55509" lon="3.3668">
    <name>TP075</name>
  </trkpt>
  <trkpt lat="6.55451" lon="3.36681">
    <name>TP076</name>
  </trkpt>
  <trkpt lat="6.55425" lon="3.36681">
    <name>TP077</name>
  </trkpt>
  <trkpt lat="6.55424" lon="3.36682">
    <name>TP078</name>
  </trkpt>
  <trkpt lat="6.55393" lon="3.36682">
    <name>TP079</name>
  </trkpt>
  <trkpt lat="6.55372" lon="3.36683">
    <name>TP080</name>
  </trkpt>
  <trkpt lat="6.55317" lon="3.36685">
    <name>TP081</name>
  </trkpt>
  <trkpt lat="6.55274" lon="3.36687">
    <name>TP082</name>
  </trkpt>
  <trkpt lat="6.55224" lon="3.36687">
    <name>TP083</name>
  </trkpt>
  <trkpt lat="6.55193" lon="3.36687">
    <name>TP084</name>
  </trkpt>
  <trkpt lat="6.55127" lon="3.36689">
    <name>TP085</name>
  </trkpt>
  <trkpt lat="6.55062" lon="3.3669">
    <name>TP086</name>
  </trkpt>
  <trkpt lat="6.54993" lon="3.3669">
    <name>TP087</name>
  </trkpt>
  <trkpt lat="6.54946" lon="3.36689">
    <name>TP088</name>
  </trkpt>
  <trkpt lat="6.54903" lon="3.36689">
    <name>TP089</name>
  </trkpt>
  <trkpt lat="6.54902" lon="3.36689">
    <name>TP090</name>
  </trkpt>
  <trkpt lat="6.54776" lon="3.36689">
    <name>TP091</name>
  </trkpt>
  <trkpt lat="6.54759" lon="3.36689">
    <name>TP092</name>
  </trkpt>
  <trkpt lat="6.54758" lon="3.36689">
    <name>TP093</name>
  </trkpt>
  <trkpt lat="6.54722" lon="3.36689">
    <name>TP094</name>
  </trkpt>
  <trkpt lat="6.54706" lon="3.36689">
    <name>TP095</name>
  </trkpt>
  <trkpt lat="6.54686" lon="3.3669">
    <name>TP096</name>
  </trkpt>
  <trkpt lat="6.54667" lon="3.3669">
    <name>TP097</name>
  </trkpt>
  <trkpt lat="6.54648" lon="3.3669">
    <name>TP098</name>
  </trkpt>
  <trkpt lat="6.54622" lon="3.36689">
    <name>TP099</name>
  </trkpt>
  <trkpt lat="6.54571" lon="3.36691">
    <name>TP100</name>
  </trkpt>
  <trkpt lat="6.54494" lon="3.36693">
    <name>TP101</name>
  </trkpt>
  <trkpt lat="6.54491" lon="3.36693">
    <name>TP102</name>
  </trkpt>
  <trkpt lat="6.5448" lon="3.36693">
    <name>TP103</name>
  </trkpt>
  <trkpt lat="6.54441" lon="3.36695">
    <name>TP104</name>
  </trkpt>
  <trkpt lat="6.54438" lon="3.36695">
    <name>TP105</name>
  </trkpt>
  <trkpt lat="6.54429" lon="3.36696">
    <name>TP106</name>
  </trkpt>
  <trkpt lat="6.54369" lon="3.36698">
    <name>TP107</name>
  </trkpt>
  <trkpt lat="6.54351" lon="3.36698">
    <name>TP108</name>
  </trkpt>
  <trkpt lat="6.54333" lon="3.36699">
    <name>TP109</name>
  </trkpt>
  <trkpt lat="6.54331" lon="3.36699">
    <name>TP110</name>
  </trkpt>
  <trkpt lat="6.54268" lon="3.36701">
    <name>TP111</name>
  </trkpt>
  <trkpt lat="6.54261" lon="3.36701">
    <name>TP112</name>
  </trkpt>
  <trkpt lat="6.5426" lon="3.36701">
    <name>TP113</name>
  </trkpt>
  <trkpt lat="6.54243" lon="3.36702">
    <name>TP114</name>
  </trkpt>
  <trkpt lat="6.54225" lon="3.36703">
    <name>TP115</name>
  </trkpt>
  <trkpt lat="6.54189" lon="3.36704">
    <name>TP116</name>
  </trkpt>
  <trkpt lat="6.54153" lon="3.36705">
    <name>TP117</name>
  </trkpt>
  <trkpt lat="6.5409" lon="3.36707">
    <name>TP118</name>
  </trkpt>
  <trkpt lat="6.54081" lon="3.36707">
    <name>TP119</name>
  </trkpt>
  <trkpt lat="6.54064" lon="3.36707">
    <name>TP120</name>
  </trkpt>
  <trkpt lat="6.54057" lon="3.36707">
    <name>TP121</name>
  </trkpt>
  <trkpt lat="6.54002" lon="3.36709">
    <name>TP122</name>
  </trkpt>
  <trkpt lat="6.53967" lon="3.3671">
    <name>TP123</name>
  </trkpt>
  <trkpt lat="6.53928" lon="3.3671">
    <name>TP124</name>
  </trkpt>
  <trkpt lat="6.53892" lon="3.3671">
    <name>TP125</name>
  </trkpt>
  <trkpt lat="6.53874" lon="3.36711">
    <name>TP126</name>
  </trkpt>
  <trkpt lat="6.53802" lon="3.36712">
    <name>TP127</name>
  </trkpt>
  <trkpt lat="6.53784" lon="3.36713">
    <name>TP128</name>
  </trkpt>
  <trkpt lat="6.53712" lon="3.36714">
    <name>TP129</name>
  </trkpt>
  <trkpt lat="6.53694" lon="3.36714">
    <name>TP130</name>
  </trkpt>
  <trkpt lat="6.5364" lon="3.36715">
    <name>TP131</name>
  </trkpt>
  <trkpt lat="6.53622" lon="3.36716">
    <name>TP132</name>
  </trkpt>
  <trkpt lat="6.53588" lon="3.36716">
    <name>TP133</name>
  </trkpt>
  <trkpt lat="6.53542" lon="3.36717">
    <name>TP134</name>
  </trkpt>
  <trkpt lat="6.5349" lon="3.36715">
    <name>TP135</name>
  </trkpt>
  <trkpt lat="6.53416" lon="3.36713">
    <name>TP136</name>
  </trkpt>
  <trkpt lat="6.53383" lon="3.3671">
    <name>TP137</name>
  </trkpt>
  <trkpt lat="6.53343" lon="3.36711">
    <name>TP138</name>
  </trkpt>
  <trkpt lat="6.53307" lon="3.36712">
    <name>TP139</name>
  </trkpt>
  <trkpt lat="6.53283" lon="3.36713">
    <name>TP140</name>
  </trkpt>
  <trkpt lat="6.53275" lon="3.36713">
    <name>TP141</name>
  </trkpt>
  <trkpt lat="6.53242" lon="3.36715">
    <name>TP142</name>
  </trkpt>
  <trkpt lat="6.5318" lon="3.36726">
    <name>TP143</name>
  </trkpt>
  <trkpt lat="6.5307" lon="3.36727">
    <name>TP144</name>
  </trkpt>
  <trkpt lat="6.52949" lon="3.36729">
    <name>TP145</name>
  </trkpt>
  <trkpt lat="6.52939" lon="3.36729">
    <name>TP146</name>
  </trkpt>
  <trkpt lat="6.52911" lon="3.36731">
    <name>TP147</name>
  </trkpt>
  <trkpt lat="6.52845" lon="3.36732">
    <name>TP148</name>
  </trkpt>
  <trkpt lat="6.52822" lon="3.36732">
    <name>TP149</name>
  </trkpt>
  <trkpt lat="6.52806" lon="3.36732">
    <name>TP150</name>
  </trkpt>
  <trkpt lat="6.52788" lon="3.36733">
    <name>TP151</name>
  </trkpt>
  <trkpt lat="6.52772" lon="3.36734">
    <name>TP152</name>
  </trkpt>
  <trkpt lat="6.52754" lon="3.36734">
    <name>TP153</name>
  </trkpt>
  <trkpt lat="6.52682" lon="3.36735">
    <name>TP154</name>
  </trkpt>
  <trkpt lat="6.52557" lon="3.36738">
    <name>TP155</name>
  </trkpt>
  <trkpt lat="6.52521" lon="3.36732">
    <name>TP156</name>
  </trkpt>
  <trkpt lat="6.52468" lon="3.36733">
    <name>TP157</name>
  </trkpt>
  <trkpt lat="6.52438" lon="3.36733">
    <name>TP158</name>
  </trkpt>
  <trkpt lat="6.52363" lon="3.36733">
    <name>TP159</name>
  </trkpt>
  <trkpt lat="6.5235" lon="3.36733">
    <name>TP160</name>
  </trkpt>
  <trkpt lat="6.52332" lon="3.36732">
    <name>TP161</name>
  </trkpt>
  <trkpt lat="6.52325" lon="3.36732">
    <name>TP162</name>
  </trkpt>
  <trkpt lat="6.5228" lon="3.3673">
    <name>TP163</name>
  </trkpt>
  <trkpt lat="6.52262" lon="3.36731">
    <name>TP164</name>
  </trkpt>
  <trkpt lat="6.52244" lon="3.36732">
    <name>TP165</name>
  </trkpt>
  <trkpt lat="6.52227" lon="3.36734">
    <name>TP166</name>
  </trkpt>
  <trkpt lat="6.52203" lon="3.36735">
    <name>TP167</name>
  </trkpt>
  <trkpt lat="6.52194" lon="3.36736">
    <name>TP168</name>
  </trkpt>
  <trkpt lat="6.52143" lon="3.36736">
    <name>TP169</name>
  </trkpt>
  <trkpt lat="6.52125" lon="3.36736">
    <name>TP170</name>
  </trkpt>
  <trkpt lat="6.52089" lon="3.36736">
    <name>TP171</name>
  </trkpt>
  <trkpt lat="6.52071" lon="3.36737">
    <name>TP172</name>
  </trkpt>
  <trkpt lat="6.52037" lon="3.3674">
    <name>TP173</name>
  </trkpt>
  <trkpt lat="6.52014" lon="3.3674">
    <name>TP174</name>
  </trkpt>
  <trkpt lat="6.51991" lon="3.36736">
    <name>TP175</name>
  </trkpt>
  <trkpt lat="6.51974" lon="3.36741">
    <name>TP176</name>
  </trkpt>
  <trkpt lat="6.51965" lon="3.36744">
    <name>TP177</name>
  </trkpt>
  <trkpt lat="6.51947" lon="3.36748">
    <name>TP178</name>
  </trkpt>
  <trkpt lat="6.5193" lon="3.36753">
    <name>TP179</name>
  </trkpt>
  <trkpt lat="6.51929" lon="3.36753">
    <name>TP180</name>
  </trkpt>
  <trkpt lat="6.51913" lon="3.36757">
    <name>TP181</name>
  </trkpt>
  <trkpt lat="6.51912" lon="3.36758">
    <name>TP182</name>
  </trkpt>
  <trkpt lat="6.51895" lon="3.36765">
    <name>TP183</name>
  </trkpt>
  <trkpt lat="6.51881" lon="3.36771">
    <name>TP184</name>
  </trkpt>
  <trkpt lat="6.51858" lon="3.36781">
    <name>TP185</name>
  </trkpt>
  <trkpt lat="6.51801" lon="3.36802">
    <name>TP186</name>
  </trkpt>
  <trkpt lat="6.5180097" lon="3.3680192">
    <name>TP187</name>
  </trkpt>
  <trkpt lat="6.51788" lon="3.36805">
    <name>TP188</name>
  </trkpt>
  <trkpt lat="6.5176" lon="3.3682">
    <name>TP189</name>
  </trkpt>
  <trkpt lat="6.51756" lon="3.36822">
    <name>TP190</name>
  </trkpt>
  <trkpt lat="6.51743" lon="3.36828">
    <name>TP191</name>
  </trkpt>
  <trkpt lat="6.51692" lon="3.36852">
    <name>TP192</name>
  </trkpt>
  <trkpt lat="6.5169178" lon="3.368519">
    <name>TP193</name>
  </trkpt>
  <trkpt lat="6.51683" lon="3.36849">
    <name>TP194</name>
  </trkpt>
  <trkpt lat="6.51674" lon="3.36844">
    <name>TP195</name>
  </trkpt>
  <trkpt lat="6.51665" lon="3.36838">
    <name>TP196</name>
  </trkpt>
  <trkpt lat="6.51657" lon="3.3683">
    <name>TP197</name>
  </trkpt>
  <trkpt lat="6.51648" lon="3.36808">
    <name>TP198</name>
  </trkpt>
  <trkpt lat="6.51643" lon="3.36793">
    <name>TP199</name>
  </trkpt>
  <trkpt lat="6.51641" lon="3.36788">
    <name>TP200</name>
  </trkpt>
  <trkpt lat="6.51634" lon="3.36762">
    <name>TP201</name>
  </trkpt>
  <trkpt lat="6.51632" lon="3.36756">
    <name>TP202</name>
  </trkpt>
  <trkpt lat="6.5163" lon="3.36745">
    <name>TP203</name>
  </trkpt>
  <trkpt lat="6.51623" lon="3.36704">
    <name>TP204</name>
  </trkpt>
  <trkpt lat="6.51621" lon="3.36692">
    <name>TP205</name>
  </trkpt>
  <trkpt lat="6.5162" lon="3.3668">
    <name>TP206</name>
  </trkpt>
  <trkpt lat="6.51619" lon="3.36672">
    <name>TP207</name>
  </trkpt>
  <trkpt lat="6.5162" lon="3.3666">
    <name>TP208</name>
  </trkpt>
  <trkpt lat="6.51623" lon="3.36649">
    <name>TP209</name>
  </trkpt>
  <trkpt lat="6.51629" lon="3.36637">
    <name>TP210</name>
  </trkpt>
  <trkpt lat="6.51638" lon="3.36623">
    <name>TP211</name>
  </trkpt>
  <trkpt lat="6.51643" lon="3.36615">
    <name>TP212</name>
  </trkpt>
  <trkpt lat="6.51645" lon="3.36611">
    <name>TP213</name>
  </trkpt>
  <trkpt lat="6.51654" lon="3.36595">
    <name>TP214</name>
  </trkpt>
  <trkpt lat="6.51666" lon="3.36564">
    <name>TP215</name>
  </trkpt>
  <trkpt lat="6.51673" lon="3.36537">
    <name>TP216</name>
  </trkpt>
  <trkpt lat="6.51674" lon="3.36534">
    <name>TP217</name>
  </trkpt>
  <trkpt lat="6.51674" lon="3.36532">
    <name>TP218</name>
  </trkpt>
  <trkpt lat="6.51678" lon="3.36518">
    <name>TP219</name>
  </trkpt>
  <trkpt lat="6.5167815" lon="3.3651781">
    <name>TP220</name>
  </trkpt>
  <trkpt lat="6.51672" lon="3.36516">
    <name>TP221</name>
  </trkpt>
  <trkpt lat="6.5165" lon="3.36508">
    <name>TP222</name>
  </trkpt>
  <trkpt lat="6.51602" lon="3.36493">
    <name>TP223</name>
  </trkpt>
  <trkpt lat="6.51577" lon="3.36485">
    <name>TP224</name>
  </trkpt>
  <trkpt lat="6.5157686" lon="3.3648483">
    <name>TP225</name>
  </trkpt>
  <trkpt lat="6.51581" lon="3.36476">
    <name>TP226</name>
  </trkpt>
  <trkpt lat="6.51585" lon="3.36468">
    <name>TP227</name>
  </trkpt>
  <trkpt lat="6.51601" lon="3.3643">
    <name>TP228</name>
  </trkpt>
  <trkpt lat="6.51608" lon="3.36408">
    <name>TP229</name>
  </trkpt>
  <trkpt lat="6.51609" lon="3.36403">
    <name>TP230</name>
  </trkpt>
  <trkpt lat="6.51625" lon="3.36354">
    <name>TP231</name>
  </trkpt>
  <trkpt lat="6.51643" lon="3.36304">
    <name>TP232</name>
  </trkpt>
  <trkpt lat="6.51655" lon="3.36267">
    <name>TP233</name>
  </trkpt>
  <trkpt lat="6.51672" lon="3.36214">
    <name>TP234</name>
  </trkpt>
  <trkpt lat="6.51677" lon="3.36196">
    <name>TP235</name>
  </trkpt>
  <trkpt lat="6.51688" lon="3.36163">
    <name>TP236</name>
  </trkpt>
  <trkpt lat="6.51689" lon="3.3616">
    <name>TP237</name>
  </trkpt>
  <trkpt lat="6.5168851" lon="3.3616039">
    <name>TP238</name>
  </trkpt>
  <trkpt lat="6.51672" lon="3.36155">
    <name>TP239</name>
  </trkpt>
  <trkpt lat="6.51664" lon="3.36152">
    <name>TP240</name>
  </trkpt>
  <trkpt lat="6.51603" lon="3.36133">
    <name>TP241</name>
  </trkpt>
  <trkpt lat="6.51596" lon="3.36131">
    <name>TP242</name>
  </trkpt>
  <trkpt lat="6.51508" lon="3.36103">
    <name>TP243</name>
  </trkpt>
  <trkpt lat="6.51501" lon="3.36101">
    <name>TP244</name>
  </trkpt>
  <trkpt lat="6.51497" lon="3.361">
    <name>TP245</name>
  </trkpt>
  <trkpt lat="6.5149" lon="3.36098">
    <name>TP246</name>
  </trkpt>
  <trkpt lat="6.51478" lon="3.36093">
    <name>TP247</name>
  </trkpt>
  <trkpt lat="6.51467" lon="3.36088">
    <name>TP248</name>
  </trkpt>
  <trkpt lat="6.51426" lon="3.36039">
    <name>TP249</name>
  </trkpt>
  <trkpt lat="6.51411" lon="3.36021">
    <name>TP250</name>
  </trkpt>
  <trkpt lat="6.51399" lon="3.36007">
    <name>TP251</name>
  </trkpt>
  <trkpt lat="6.5133" lon="3.35924">
    <name>TP252</name>
  </trkpt>
  <trkpt lat="6.51319" lon="3.3591">
    <name>TP253</name>
  </trkpt>
  <trkpt lat="6.51296" lon="3.35882">
    <name>TP254</name>
  </trkpt>
  <trkpt lat="6.51284" lon="3.35868">
    <name>TP255</name>
  </trkpt>
  <trkpt lat="6.51275" lon="3.35858">
    <name>TP256</name>
  </trkpt>
  <trkpt lat="6.51271" lon="3.35854">
    <name>TP257</name>
  </trkpt>
  <trkpt lat="6.5127089" lon="3.3585406">
    <name>TP258</name>
  </trkpt>
  <trkpt lat="6.51252" lon="3.35876">
    <name>TP259</name>
  </trkpt>
  <trkpt lat="6.51247" lon="3.35882">
    <name>TP260</name>
  </trkpt>
  <trkpt lat="6.51241" lon="3.35887">
    <name>TP261</name>
  </trkpt>
  <trkpt lat="6.51235" lon="3.35891">
    <name>TP262</name>
  </trkpt>
  <trkpt lat="6.51227" lon="3.35895">
    <name>TP263</name>
  </trkpt>
  <trkpt lat="6.51216" lon="3.35898">
    <name>TP264</name>
  </trkpt>
  <trkpt lat="6.51205" lon="3.35898">
    <name>TP265</name>
  </trkpt>
  <trkpt lat="6.51199" lon="3.35898">
    <name>TP266</name>
  </trkpt>
  <trkpt lat="6.5119874" lon="3.358981">
    <name>TP267</name>
  </trkpt>
  <trkpt lat="6.51197" lon="3.35886">
    <name>TP268</name>
  </trkpt>
  <trkpt lat="6.51195" lon="3.35877">
    <name>TP269</name>
  </trkpt>
  <trkpt lat="6.51193" lon="3.35872">
    <name>TP270</name>
  </trkpt>
  <trkpt lat="6.51189" lon="3.35868">
    <name>TP271</name>
  </trkpt>
  <trkpt lat="6.51186" lon="3.35865">
    <name>TP272</name>
  </trkpt>
  <trkpt lat="6.5118564" lon="3.3586506">
    <name>TP273</name>
  </trkpt>
  <trkpt lat="6.51191" lon="3.35852">
    <name>TP274</name>
  </trkpt>
  <trkpt lat="6.51203" lon="3.35817">
    <name>TP275</name>
  </trkpt>
  <trkpt lat="6.51206" lon="3.35808">
    <name>TP276</name>
  </trkpt>
  <trkpt lat="6.5121" lon="3.35796">
    <name>TP277</name>
  </trkpt>
  <trkpt lat="6.51214" lon="3.35783">
    <name>TP278</name>
  </trkpt>
  <trkpt lat="6.51216" lon="3.35776">
    <name>TP279</name>
  </trkpt>
  <trkpt lat="6.51218" lon="3.35766">
    <name>TP280</name>
  </trkpt>
  <trkpt lat="6.5121822" lon="3.357655">
    <name>TP281</name>
  </trkpt>
  <trkpt lat="6.51213" lon="3.35763">
    <name>TP282</name>
  </trkpt>
  <trkpt lat="6.51158" lon="3.35744">
    <name>TP283</name>
  </trkpt>
  <trkpt lat="6.51074" lon="3.35717">
    <name>TP284</name>
  </trkpt>
  <trkpt lat="6.51052" lon="3.35711">
    <name>TP285</name>
  </trkpt>
  <trkpt lat="6.51044" lon="3.35709">
    <name>TP286</name>
  </trkpt>
  <trkpt lat="6.51039" lon="3.35708">
    <name>TP287</name>
  </trkpt>
  <trkpt lat="6.51035" lon="3.35707">
    <name>TP288</name>
  </trkpt>
  <trkpt lat="6.5103" lon="3.35707">
    <name>TP289</name>
  </trkpt>
  <trkpt lat="6.51023" lon="3.35707">
    <name>TP290</name>
  </trkpt>
  <trkpt lat="6.51011" lon="3.35708">
    <name>TP291</name>
  </trkpt>
  <trkpt lat="6.50978" lon="3.35711">
    <name>TP292</name>
  </trkpt>
  <trkpt lat="6.50954" lon="3.35713">
    <name>TP293</name>
  </trkpt>
  <trkpt lat="6.5094" lon="3.35714">
    <name>TP294</name>
  </trkpt>
  <trkpt lat="6.5093" lon="3.35713">
    <name>TP295</name>
  </trkpt>
  <trkpt lat="6.50925" lon="3.35712">
    <name>TP296</name>
  </trkpt>
  <trkpt lat="6.50918" lon="3.35711">
    <name>TP297</name>
  </trkpt>
  <trkpt lat="6.50911" lon="3.3571">
    <name>TP298</name>
  </trkpt>
  <trkpt lat="6.5089" lon="3.35705">
    <name>TP299</name>
  </trkpt>
  <trkpt lat="6.50865" lon="3.35699">
    <name>TP300</name>
  </trkpt>
  <trkpt lat="6.50848" lon="3.35695">
    <name>TP301</name>
  </trkpt>
  <trkpt lat="6.50822" lon="3.35689">
    <name>TP302</name>
  </trkpt>
  <trkpt lat="6.50764" lon="3.35676">
    <name>TP303</name>
  </trkpt>
  <trkpt lat="6.50698" lon="3.35658">
    <name>TP304</name>
  </trkpt>
  <trkpt lat="6.50664" lon="3.3565">
    <name>TP305</name>
  </trkpt>
  <trkpt lat="6.50623" lon="3.35638">
    <name>TP306</name>
  </trkpt>
  <trkpt lat="6.50605" lon="3.35633">
    <name>TP307</name>
  </trkpt>
  <trkpt lat="6.5058" lon="3.35627">
    <name>TP308</name>
  </trkpt>
  <trkpt lat="6.50535" lon="3.35615">
    <name>TP309</name>
  </trkpt>
  <trkpt lat="6.50491" lon="3.35594">
    <name>TP310</name>
  </trkpt>
  <trkpt lat="6.5049108" lon="3.3559449">
    <name>TP311</name>
  </trkpt>
  <trkpt lat="6.50484" lon="3.35603">
    <name>TP312</name>
  </trkpt>
  <trkpt lat="6.50476" lon="3.35611">
    <name>TP313</name>
  </trkpt>
  <trkpt lat="6.50467" lon="3.35619">
    <name>TP314</name>
  </trkpt>
  <trkpt lat="6.50453" lon="3.35629">
    <name>TP315</name>
  </trkpt>
  <trkpt lat="6.50444" lon="3.35635">
    <name>TP316</name>
  </trkpt>
  <trkpt lat="6.50433" lon="3.35642">
    <name>TP317</name>
  </trkpt>
  <trkpt lat="6.50424" lon="3.35649">
    <name>TP318</name>
  </trkpt>
  <trkpt lat="6.50419" lon="3.35653">
    <name>TP319</name>
  </trkpt>
  <trkpt lat="6.50416" lon="3.35656">
    <name>TP320</name>
  </trkpt>
  <trkpt lat="6.50411" lon="3.35662">
    <name>TP321</name>
  </trkpt>
  <trkpt lat="6.50406" lon="3.35667">
    <name>TP322</name>
  </trkpt>
  <trkpt lat="6.50401" lon="3.35675">
    <name>TP323</name>
  </trkpt>
  <trkpt lat="6.50398" lon="3.35679">
    <name>TP324</name>
  </trkpt>
  <trkpt lat="6.50395" lon="3.35686">
    <name>TP325</name>
  </trkpt>
  <trkpt lat="6.50389" lon="3.35701">
    <name>TP326</name>
  </trkpt>
  <trkpt lat="6.50389" lon="3.35702">
    <name>TP327</name>
  </trkpt>
  <trkpt lat="6.50383" lon="3.35719">
    <name>TP328</name>
  </trkpt>
  <trkpt lat="6.50376" lon="3.35737">
    <name>TP329</name>
  </trkpt>
  <trkpt lat="6.50369" lon="3.35754">
    <name>TP330</name>
  </trkpt>
  <trkpt lat="6.50362" lon="3.35772">
    <name>TP331</name>
  </trkpt>
  <trkpt lat="6.50357" lon="3.35786">
    <name>TP332</name>
  </trkpt>
  <trkpt lat="6.50335" lon="3.35847">
    <name>TP333</name>
  </trkpt>
  <trkpt lat="6.50326" lon="3.3587">
    <name>TP334</name>
  </trkpt>
  <trkpt lat="6.50323" lon="3.35876">
    <name>TP335</name>
  </trkpt>
  <trkpt lat="6.50319" lon="3.35884">
    <name>TP336</name>
  </trkpt>
  <trkpt lat="6.50315" lon="3.35892">
    <name>TP337</name>
  </trkpt>
  <trkpt lat="6.50308" lon="3.35902">
    <name>TP338</name>
  </trkpt>
  <trkpt lat="6.50302" lon="3.35911">
    <name>TP339</name>
  </trkpt>
  <trkpt lat="6.50291" lon="3.35922">
    <name>TP340</name>
  </trkpt>
  <trkpt lat="6.50277" lon="3.35934">
    <name>TP341</name>
  </trkpt>
  <trkpt lat="6.50273" lon="3.35937">
    <name>TP342</name>
  </trkpt>
  <trkpt lat="6.50256" lon="3.35946">
    <name>TP343</name>
  </trkpt>
  <trkpt lat="6.50247" lon="3.35949">
    <name>TP344</name>
  </trkpt>
  <trkpt lat="6.50237" lon="3.35952">
    <name>TP345</name>
  </trkpt>
  <trkpt lat="6.50225" lon="3.35953">
    <name>TP346</name>
  </trkpt>
  <trkpt lat="6.50201" lon="3.3596">
    <name>TP347</name>
  </trkpt>
  <trkpt lat="6.50189" lon="3.35962">
    <name>TP348</name>
  </trkpt>
  <trkpt lat="6.50176" lon="3.35964">
    <name>TP349</name>
  </trkpt>
  <trkpt lat="6.50163" lon="3.35964">
    <name>TP350</name>
  </trkpt>
  <trkpt lat="6.50152" lon="3.35964">
    <name>TP351</name>
  </trkpt>
  <trkpt lat="6.50146" lon="3.35963">
    <name>TP352</name>
  </trkpt>
  <trkpt lat="6.50129" lon="3.35959">
    <name>TP353</name>
  </trkpt>
  <trkpt lat="6.50126" lon="3.35958">
    <name>TP354</name>
  </trkpt>
  <trkpt lat="6.50112" lon="3.35953">
    <name>TP355</name>
  </trkpt>
  <trkpt lat="6.50095" lon="3.35948">
    <name>TP356</name>
  </trkpt>
  <trkpt lat="6.50078" lon="3.35942">
    <name>TP357</name>
  </trkpt>
  <trkpt lat="6.50061" lon="3.35936">
    <name>TP358</name>
  </trkpt>
  <trkpt lat="6.50043" lon="3.3593">
    <name>TP359</name>
  </trkpt>
  <trkpt lat="6.50035" lon="3.35928">
    <name>TP360</name>
  </trkpt>
  <trkpt lat="6.50018" lon="3.35921">
    <name>TP361</name>
  </trkpt>
  <trkpt lat="6.49977" lon="3.35907">
    <name>TP362</name>
  </trkpt>
  <trkpt lat="6.49973" lon="3.35905">
    <name>TP363</name>
  </trkpt>
  <trkpt lat="6.49937" lon="3.35892">
    <name>TP364</name>
  </trkpt>
  <trkpt lat="6.49926" lon="3.35886">
    <name>TP365</name>
  </trkpt>
  <trkpt lat="6.49924" lon="3.35882">
    <name>TP366</name>
  </trkpt>
  <trkpt lat="6.49922" lon="3.3588">
    <name>TP367</name>
  </trkpt>
  <trkpt lat="6.49921" lon="3.35874">
    <name>TP368</name>
  </trkpt>
  <trkpt lat="6.4992124" lon="3.3587364">
    <name>TP369</name>
  </trkpt>
  <trkpt lat="6.49914" lon="3.35874">
    <name>TP370</name>
  </trkpt>
  <trkpt lat="6.49908" lon="3.35873">
    <name>TP371</name>
  </trkpt>
  <trkpt lat="6.49905" lon="3.35871">
    <name>TP372</name>
  </trkpt>
  <trkpt lat="6.49904" lon="3.3587">
    <name>TP373</name>
  </trkpt>
  <trkpt lat="6.49902" lon="3.35869">
    <name>TP374</name>
  </trkpt>
  <trkpt lat="6.49901" lon="3.35868">
    <name>TP375</name>
  </trkpt>
  <trkpt lat="6.499" lon="3.35867">
    <name>TP376</name>
  </trkpt>
  <trkpt lat="6.49897" lon="3.35864">
    <name>TP377</name>
  </trkpt>
  <trkpt lat="6.49896" lon="3.35861">
    <name>TP378</name>
  </trkpt>
  <trkpt lat="6.49895" lon="3.35858">
    <name>TP379</name>
  </trkpt>
  <trkpt lat="6.49895" lon="3.35855">
    <name>TP380</name>
  </trkpt>
  <trkpt lat="6.49895" lon="3.35853">
    <name>TP381</name>
  </trkpt>
  <trkpt lat="6.49896" lon="3.35851">
    <name>TP382</name>
  </trkpt>
  <trkpt lat="6.49896" lon="3.35849">
    <name>TP383</name>
  </trkpt>
  <trkpt lat="6.49897" lon="3.35847">
    <name>TP384</name>
  </trkpt>
  <trkpt lat="6.49898" lon="3.35845">
    <name>TP385</name>
  </trkpt>
  <trkpt lat="6.4989759" lon="3.3584493">
    <name>TP386</name>
  </trkpt>
  <trkpt lat="6.4989759" lon="3.3584493">
    <name>TP387</name>
  </trkpt>
  <trkpt lat="6.4989759" lon="3.3584493">
    <name>TP388</name>
  </trkpt>
  </trkseg>
</trk>
</gpx>