<?xml version="1.0" encoding="UTF-8" standalone="no" ?>
<gpx xmlns="http://www.topografix.com/GPX/1/1" xmlns:gpxx="http://www.garmin.com/xmlschemas/GpxExtensions/v3" xmlns:gpxtpx="http://www.garmin.com/xmlschemas/TrackPointExtension/v1" creator="mapstogpx.com" version="1.1" xmlns:xsi="http://www.w3.org/2001/XMLSchema-instance" xsi:schemaLocation="http://www.topografix.com/GPX/1/1 http://www.topografix.com/GPX/1/1/gpx.xsd http://www.garmin.com/xmlschemas/GpxExtensions/v3 http://www.garmin.com/xmlschemas/GpxExtensionsv3.xsd http://www.garmin.com/xmlschemas/TrackPointExtension/v1 http://www.garmin.com/xmlschemas/TrackPointExtensionv1.xsd">
  <metadata>
    <link href="http://www.mapstogpx.com">
      <text>Sverrir Sigmundarson</text>
    </link>
    <!--desc>Powered by Google, ©2026 Google</desc-->
    <!--copyright author="Google Inc">
    	<year>2026</year>
    	<license>https://developers.google.com/maps/terms</license>
    </copyright-->
    <!--url>https://www.google.com/maps/dir/Sports+Center,+University+of+Lagos+Akoka,+G98P%2BJJW,+University+Rd,+Yaba,+Lagos+101245,+Lagos/Shitta+Roundabout+Park,+5+Akerele+St,+Surulere,+Lagos+101241,+Lagos/@6.5084466,3.3610856,15z/data=!3m1!4b1!4m14!4m13!1m5!1m1!1s0x103b8cfb29806459:0xe969b915b9128f99!2m2!1d3.3865835!2d6.5166711!1m5!1m1!1s0x103b8c14b83f274d:0xc4608bf11f9a5817!2m2!1d3.3585173!2d6.4991563!3e2?entry=tts&g_ep=EgoyMDI2MDkyMi4wKgBIAVAD&skid=542f9b70-3752-4a57-a986-a5cefeb18021&hl=en</url-->
    <time>2026-09-24T21:56:33Z</time>
  </metadata>
  <wpt lat="6.5166711" lon="3.3865835">
    <name>Sports Center</name>
    <desc>Sports Center, University of Lagos Akoka, G98P+JJW, University Rd, Yaba, Lagos 101245, Lagos, Nigeria</desc>
  </wpt>
  <wpt lat="6.4991563" lon="3.3585173">
    <name>Shitta Roundabout Park</name>
    <desc>Shitta Roundabout Park, 5 Akerele St, Surulere, Lagos 101241, Lagos, Nigeria</desc>
  </wpt>
<trk>
  <name>Sports Center to Shitta Roundabout Park</name>
  <number>1</number>
  <trkseg>
  <trkpt lat="6.5167609" lon="3.3868529">
    <name>TP001</name>
  </trkpt>
  <trkpt lat="6.51683" lon="3.38683">
    <name>TP002</name>
  </trkpt>
  <trkpt lat="6.51689" lon="3.38681">
    <name>TP003</name>
  </trkpt>
  <trkpt lat="6.51693" lon="3.38679">
    <name>TP004</name>
  </trkpt>
  <trkpt lat="6.51697" lon="3.38676">
    <name>TP005</name>
  </trkpt>
  <trkpt lat="6.517" lon="3.38674">
    <name>TP006</name>
  </trkpt>
  <trkpt lat="6.51703" lon="3.38671">
    <name>TP007</name>
  </trkpt>
  <trkpt lat="6.51703" lon="3.3867">
    <name>TP008</name>
  </trkpt>
  <trkpt lat="6.51706" lon="3.38666">
    <name>TP009</name>
  </trkpt>
  <trkpt lat="6.51718" lon="3.38648">
    <name>TP010</name>
  </trkpt>
  <trkpt lat="6.51719" lon="3.38644">
    <name>TP011</name>
  </trkpt>
  <trkpt lat="6.5172" lon="3.38641">
    <name>TP012</name>
  </trkpt>
  <trkpt lat="6.51722" lon="3.38638">
    <name>TP013</name>
  </trkpt>
  <trkpt lat="6.51723" lon="3.38634">
    <name>TP014</name>
  </trkpt>
  <trkpt lat="6.51724" lon="3.38629">
    <name>TP015</name>
  </trkpt>
  <trkpt lat="6.51726" lon="3.38623">
    <name>TP016</name>
  </trkpt>
  <trkpt lat="6.51727" lon="3.38613">
    <name>TP017</name>
  </trkpt>
  <trkpt lat="6.51726" lon="3.38603">
    <name>TP018</name>
  </trkpt>
  <trkpt lat="6.51725" lon="3.38589">
    <name>TP019</name>
  </trkpt>
  <trkpt lat="6.51723" lon="3.38576">
    <name>TP020</name>
  </trkpt>
  <trkpt lat="6.51721" lon="3.38561">
    <name>TP021</name>
  </trkpt>
  <trkpt lat="6.5172058" lon="3.385613">
    <name>TP022</name>
  </trkpt>
  <trkpt lat="6.51731" lon="3.38563">
    <name>TP023</name>
  </trkpt>
  <trkpt lat="6.51743" lon="3.38566">
    <name>TP024</name>
  </trkpt>
  <trkpt lat="6.51754" lon="3.38568">
    <name>TP025</name>
  </trkpt>
  <trkpt lat="6.5175422" lon="3.3856822">
    <name>TP026</name>
  </trkpt>
  <trkpt lat="6.51757" lon="3.38532">
    <name>TP027</name>
  </trkpt>
  <trkpt lat="6.51763" lon="3.38499">
    <name>TP028</name>
  </trkpt>
  <trkpt lat="6.51769" lon="3.38475">
    <name>TP029</name>
  </trkpt>
  <trkpt lat="6.51769" lon="3.38463">
    <name>TP030</name>
  </trkpt>
  <trkpt lat="6.51757" lon="3.38413">
    <name>TP031</name>
  </trkpt>
  <trkpt lat="6.51757" lon="3.38405">
    <name>TP032</name>
  </trkpt>
  <trkpt lat="6.51749" lon="3.38369">
    <name>TP033</name>
  </trkpt>
  <trkpt lat="6.51739" lon="3.38323">
    <name>TP034</name>
  </trkpt>
  <trkpt lat="6.51738" lon="3.38318">
    <name>TP035</name>
  </trkpt>
  <trkpt lat="6.51725" lon="3.3826">
    <name>TP036</name>
  </trkpt>
  <trkpt lat="6.51724" lon="3.38251">
    <name>TP037</name>
  </trkpt>
  <trkpt lat="6.51718" lon="3.38227">
    <name>TP038</name>
  </trkpt>
  <trkpt lat="6.51714" lon="3.38213">
    <name>TP039</name>
  </trkpt>
  <trkpt lat="6.51713" lon="3.3821">
    <name>TP040</name>
  </trkpt>
  <trkpt lat="6.51708" lon="3.38193">
    <name>TP041</name>
  </trkpt>
  <trkpt lat="6.51703" lon="3.38179">
    <name>TP042</name>
  </trkpt>
  <trkpt lat="6.51693" lon="3.38151">
    <name>TP043</name>
  </trkpt>
  <trkpt lat="6.51678" lon="3.38111">
    <name>TP044</name>
  </trkpt>
  <trkpt lat="6.51662" lon="3.3807">
    <name>TP045</name>
  </trkpt>
  <trkpt lat="6.51629" lon="3.37995">
    <name>TP046</name>
  </trkpt>
  <trkpt lat="6.51626" lon="3.37987">
    <name>TP047</name>
  </trkpt>
  <trkpt lat="6.516" lon="3.37927">
    <name>TP048</name>
  </trkpt>
  <trkpt lat="6.51574" lon="3.37875">
    <name>TP049</name>
  </trkpt>
  <trkpt lat="6.51533" lon="3.37776">
    <name>TP050</name>
  </trkpt>
  <trkpt lat="6.51532" lon="3.37773">
    <name>TP051</name>
  </trkpt>
  <trkpt lat="6.51522" lon="3.37745">
    <name>TP052</name>
  </trkpt>
  <trkpt lat="6.51508" lon="3.37711">
    <name>TP053</name>
  </trkpt>
  <trkpt lat="6.51501" lon="3.37694">
    <name>TP054</name>
  </trkpt>
  <trkpt lat="6.51495" lon="3.37677">
    <name>TP055</name>
  </trkpt>
  <trkpt lat="6.51483" lon="3.37651">
    <name>TP056</name>
  </trkpt>
  <trkpt lat="6.5147" lon="3.37623">
    <name>TP057</name>
  </trkpt>
  <trkpt lat="6.51463" lon="3.37608">
    <name>TP058</name>
  </trkpt>
  <trkpt lat="6.5146339" lon="3.376082">
    <name>TP059</name>
  </trkpt>
  <trkpt lat="6.51403" lon="3.37631">
    <name>TP060</name>
  </trkpt>
  <trkpt lat="6.51353" lon="3.3765">
    <name>TP061</name>
  </trkpt>
  <trkpt lat="6.51319" lon="3.37663">
    <name>TP062</name>
  </trkpt>
  <trkpt lat="6.51266" lon="3.37683">
    <name>TP063</name>
  </trkpt>
  <trkpt lat="6.51247" lon="3.37691">
    <name>TP064</name>
  </trkpt>
  <trkpt lat="6.51223" lon="3.37701">
    <name>TP065</name>
  </trkpt>
  <trkpt lat="6.51184" lon="3.37718">
    <name>TP066</name>
  </trkpt>
  <trkpt lat="6.51174" lon="3.37722">
    <name>TP067</name>
  </trkpt>
  <trkpt lat="6.5113" lon="3.37742">
    <name>TP068</name>
  </trkpt>
  <trkpt lat="6.51118" lon="3.37747">
    <name>TP069</name>
  </trkpt>
  <trkpt lat="6.5111787" lon="3.3774657">
    <name>TP070</name>
  </trkpt>
  <trkpt lat="6.51116" lon="3.37738">
    <name>TP071</name>
  </trkpt>
  <trkpt lat="6.51115" lon="3.37735">
    <name>TP072</name>
  </trkpt>
  <trkpt lat="6.5111501" lon="3.3773536">
    <name>TP073</name>
  </trkpt>
  <trkpt lat="6.51087" lon="3.37746">
    <name>TP074</name>
  </trkpt>
  <trkpt lat="6.51071" lon="3.37752">
    <name>TP075</name>
  </trkpt>
  <trkpt lat="6.51037" lon="3.37765">
    <name>TP076</name>
  </trkpt>
  <trkpt lat="6.5103685" lon="3.3776484">
    <name>TP077</name>
  </trkpt>
  <trkpt lat="6.51036" lon="3.37763">
    <name>TP078</name>
  </trkpt>
  <trkpt lat="6.51006" lon="3.37691">
    <name>TP079</name>
  </trkpt>
  <trkpt lat="6.50975" lon="3.37614">
    <name>TP080</name>
  </trkpt>
  <trkpt lat="6.50951" lon="3.37553">
    <name>TP081</name>
  </trkpt>
  <trkpt lat="6.50924" lon="3.37487">
    <name>TP082</name>
  </trkpt>
  <trkpt lat="6.50924" lon="3.37486">
    <name>TP083</name>
  </trkpt>
  <trkpt lat="6.50923" lon="3.37486">
    <name>TP084</name>
  </trkpt>
  <trkpt lat="6.50923" lon="3.37485">
    <name>TP085</name>
  </trkpt>
  <trkpt lat="6.50922" lon="3.37483">
    <name>TP086</name>
  </trkpt>
  <trkpt lat="6.50922" lon="3.37482">
    <name>TP087</name>
  </trkpt>
  <trkpt lat="6.50921" lon="3.37481">
    <name>TP088</name>
  </trkpt>
  <trkpt lat="6.50921" lon="3.3748">
    <name>TP089</name>
  </trkpt>
  <trkpt lat="6.50921" lon="3.37479">
    <name>TP090</name>
  </trkpt>
  <trkpt lat="6.5092" lon="3.37478">
    <name>TP091</name>
  </trkpt>
  <trkpt lat="6.5092" lon="3.37477">
    <name>TP092</name>
  </trkpt>
  <trkpt lat="6.50919" lon="3.37476">
    <name>TP093</name>
  </trkpt>
  <trkpt lat="6.50919" lon="3.37475">
    <name>TP094</name>
  </trkpt>
  <trkpt lat="6.50918" lon="3.37474">
    <name>TP095</name>
  </trkpt>
  <trkpt lat="6.50918" lon="3.37473">
    <name>TP096</name>
  </trkpt>
  <trkpt lat="6.50918" lon="3.37472">
    <name>TP097</name>
  </trkpt>
  <trkpt lat="6.50917" lon="3.37471">
    <name>TP098</name>
  </trkpt>
  <trkpt lat="6.50917" lon="3.3747">
    <name>TP099</name>
  </trkpt>
  <trkpt lat="6.50917" lon="3.37469">
    <name>TP100</name>
  </trkpt>
  <trkpt lat="6.50916" lon="3.37469">
    <name>TP101</name>
  </trkpt>
  <trkpt lat="6.50916" lon="3.37468">
    <name>TP102</name>
  </trkpt>
  <trkpt lat="6.50916" lon="3.37467">
    <name>TP103</name>
  </trkpt>
  <trkpt lat="6.50915" lon="3.37467">
    <name>TP104</name>
  </trkpt>
  <trkpt lat="6.50915" lon="3.37466">
    <name>TP105</name>
  </trkpt>
  <trkpt lat="6.50915" lon="3.37465">
    <name>TP106</name>
  </trkpt>
  <trkpt lat="6.50914" lon="3.37464">
    <name>TP107</name>
  </trkpt>
  <trkpt lat="6.50914" lon="3.37463">
    <name>TP108</name>
  </trkpt>
  <trkpt lat="6.50914" lon="3.37462">
    <name>TP109</name>
  </trkpt>
  <trkpt lat="6.50913" lon="3.37462">
    <name>TP110</name>
  </trkpt>
  <trkpt lat="6.50913" lon="3.37461">
    <name>TP111</name>
  </trkpt>
  <trkpt lat="6.50913" lon="3.3746">
    <name>TP112</name>
  </trkpt>
  <trkpt lat="6.50912" lon="3.37459">
    <name>TP113</name>
  </trkpt>
  <trkpt lat="6.50912" lon="3.37458">
    <name>TP114</name>
  </trkpt>
  <trkpt lat="6.50911" lon="3.37457">
    <name>TP115</name>
  </trkpt>
  <trkpt lat="6.50911" lon="3.37456">
    <name>TP116</name>
  </trkpt>
  <trkpt lat="6.50911" lon="3.37455">
    <name>TP117</name>
  </trkpt>
  <trkpt lat="6.5091" lon="3.37454">
    <name>TP118</name>
  </trkpt>
  <trkpt lat="6.5091" lon="3.37453">
    <name>TP119</name>
  </trkpt>
  <trkpt lat="6.50909" lon="3.37452">
    <name>TP120</name>
  </trkpt>
  <trkpt lat="6.50909" lon="3.37451">
    <name>TP121</name>
  </trkpt>
  <trkpt lat="6.50909" lon="3.3745">
    <name>TP122</name>
  </trkpt>
  <trkpt lat="6.50908" lon="3.37449">
    <name>TP123</name>
  </trkpt>
  <trkpt lat="6.50908" lon="3.37448">
    <name>TP124</name>
  </trkpt>
  <trkpt lat="6.50907" lon="3.37447">
    <name>TP125</name>
  </trkpt>
  <trkpt lat="6.50907" lon="3.37446">
    <name>TP126</name>
  </trkpt>
  <trkpt lat="6.50907" lon="3.37445">
    <name>TP127</name>
  </trkpt>
  <trkpt lat="6.50906" lon="3.37445">
    <name>TP128</name>
  </trkpt>
  <trkpt lat="6.50906" lon="3.37444">
    <name>TP129</name>
  </trkpt>
  <trkpt lat="6.50906" lon="3.37443">
    <name>TP130</name>
  </trkpt>
  <trkpt lat="6.50905" lon="3.37443">
    <name>TP131</name>
  </trkpt>
  <trkpt lat="6.50905" lon="3.37442">
    <name>TP132</name>
  </trkpt>
  <trkpt lat="6.50905" lon="3.37441">
    <name>TP133</name>
  </trkpt>
  <trkpt lat="6.50904" lon="3.3744">
    <name>TP134</name>
  </trkpt>
  <trkpt lat="6.50904" lon="3.37439">
    <name>TP135</name>
  </trkpt>
  <trkpt lat="6.50904" lon="3.37438">
    <name>TP136</name>
  </trkpt>
  <trkpt lat="6.50903" lon="3.37438">
    <name>TP137</name>
  </trkpt>
  <trkpt lat="6.50903" lon="3.37437">
    <name>TP138</name>
  </trkpt>
  <trkpt lat="6.50903" lon="3.37436">
    <name>TP139</name>
  </trkpt>
  <trkpt lat="6.50902" lon="3.37436">
    <name>TP140</name>
  </trkpt>
  <trkpt lat="6.50902" lon="3.37435">
    <name>TP141</name>
  </trkpt>
  <trkpt lat="6.50902" lon="3.37434">
    <name>TP142</name>
  </trkpt>
  <trkpt lat="6.50901" lon="3.37433">
    <name>TP143</name>
  </trkpt>
  <trkpt lat="6.50901" lon="3.37432">
    <name>TP144</name>
  </trkpt>
  <trkpt lat="6.50901" lon="3.37431">
    <name>TP145</name>
  </trkpt>
  <trkpt lat="6.509" lon="3.37431">
    <name>TP146</name>
  </trkpt>
  <trkpt lat="6.509" lon="3.3743">
    <name>TP147</name>
  </trkpt>
  <trkpt lat="6.509" lon="3.37429">
    <name>TP148</name>
  </trkpt>
  <trkpt lat="6.50899" lon="3.37428">
    <name>TP149</name>
  </trkpt>
  <trkpt lat="6.50899" lon="3.37427">
    <name>TP150</name>
  </trkpt>
  <trkpt lat="6.50898" lon="3.37426">
    <name>TP151</name>
  </trkpt>
  <trkpt lat="6.50898" lon="3.37425">
    <name>TP152</name>
  </trkpt>
  <trkpt lat="6.50898" lon="3.37424">
    <name>TP153</name>
  </trkpt>
  <trkpt lat="6.50897" lon="3.37423">
    <name>TP154</name>
  </trkpt>
  <trkpt lat="6.5085" lon="3.37301">
    <name>TP155</name>
  </trkpt>
  <trkpt lat="6.50824" lon="3.37237">
    <name>TP156</name>
  </trkpt>
  <trkpt lat="6.50821" lon="3.37232">
    <name>TP157</name>
  </trkpt>
  <trkpt lat="6.5082129" lon="3.3723166">
    <name>TP158</name>
  </trkpt>
  <trkpt lat="6.50805" lon="3.37241">
    <name>TP159</name>
  </trkpt>
  <trkpt lat="6.50796" lon="3.37245">
    <name>TP160</name>
  </trkpt>
  <trkpt lat="6.5079" lon="3.37248">
    <name>TP161</name>
  </trkpt>
  <trkpt lat="6.50782" lon="3.37248">
    <name>TP162</name>
  </trkpt>
  <trkpt lat="6.5078231" lon="3.3724756">
    <name>TP163</name>
  </trkpt>
  <trkpt lat="6.50784" lon="3.37245">
    <name>TP164</name>
  </trkpt>
  <trkpt lat="6.50786" lon="3.37243">
    <name>TP165</name>
  </trkpt>
  <trkpt lat="6.50793" lon="3.3724">
    <name>TP166</name>
  </trkpt>
  <trkpt lat="6.50811" lon="3.37228">
    <name>TP167</name>
  </trkpt>
  <trkpt lat="6.5084" lon="3.37207">
    <name>TP168</name>
  </trkpt>
  <trkpt lat="6.50873" lon="3.37186">
    <name>TP169</name>
  </trkpt>
  <trkpt lat="6.50905" lon="3.37169">
    <name>TP170</name>
  </trkpt>
  <trkpt lat="6.50956" lon="3.37145">
    <name>TP171</name>
  </trkpt>
  <trkpt lat="6.50963" lon="3.37142">
    <name>TP172</name>
  </trkpt>
  <trkpt lat="6.5096281" lon="3.3714188">
    <name>TP173</name>
  </trkpt>
  <trkpt lat="6.50964" lon="3.37134">
    <name>TP174</name>
  </trkpt>
  <trkpt lat="6.50964" lon="3.37131">
    <name>TP175</name>
  </trkpt>
  <trkpt lat="6.50964" lon="3.37129">
    <name>TP176</name>
  </trkpt>
  <trkpt lat="6.50963" lon="3.37126">
    <name>TP177</name>
  </trkpt>
  <trkpt lat="6.50962" lon="3.37122">
    <name>TP178</name>
  </trkpt>
  <trkpt lat="6.50958" lon="3.37116">
    <name>TP179</name>
  </trkpt>
  <trkpt lat="6.50954" lon="3.37107">
    <name>TP180</name>
  </trkpt>
  <trkpt lat="6.5095" lon="3.37098">
    <name>TP181</name>
  </trkpt>
  <trkpt lat="6.50948" lon="3.37093">
    <name>TP182</name>
  </trkpt>
  <trkpt lat="6.50946" lon="3.37088">
    <name>TP183</name>
  </trkpt>
  <trkpt lat="6.50942" lon="3.37082">
    <name>TP184</name>
  </trkpt>
  <trkpt lat="6.50939" lon="3.37075">
    <name>TP185</name>
  </trkpt>
  <trkpt lat="6.50934" lon="3.37064">
    <name>TP186</name>
  </trkpt>
  <trkpt lat="6.50929" lon="3.37053">
    <name>TP187</name>
  </trkpt>
  <trkpt lat="6.50924" lon="3.37044">
    <name>TP188</name>
  </trkpt>
  <trkpt lat="6.50901" lon="3.36997">
    <name>TP189</name>
  </trkpt>
  <trkpt lat="6.50897" lon="3.36989">
    <name>TP190</name>
  </trkpt>
  <trkpt lat="6.50893" lon="3.36978">
    <name>TP191</name>
  </trkpt>
  <trkpt lat="6.50887" lon="3.3696">
    <name>TP192</name>
  </trkpt>
  <trkpt lat="6.5088" lon="3.3693">
    <name>TP193</name>
  </trkpt>
  <trkpt lat="6.50871" lon="3.36888">
    <name>TP194</name>
  </trkpt>
  <trkpt lat="6.50868" lon="3.36878">
    <name>TP195</name>
  </trkpt>
  <trkpt lat="6.50861" lon="3.36842">
    <name>TP196</name>
  </trkpt>
  <trkpt lat="6.50853" lon="3.36815">
    <name>TP197</name>
  </trkpt>
  <trkpt lat="6.5085" lon="3.36802">
    <name>TP198</name>
  </trkpt>
  <trkpt lat="6.50851" lon="3.36793">
    <name>TP199</name>
  </trkpt>
  <trkpt lat="6.50854" lon="3.36781">
    <name>TP200</name>
  </trkpt>
  <trkpt lat="6.50855" lon="3.36775">
    <name>TP201</name>
  </trkpt>
  <trkpt lat="6.50856" lon="3.36771">
    <name>TP202</name>
  </trkpt>
  <trkpt lat="6.50858" lon="3.36766">
    <name>TP203</name>
  </trkpt>
  <trkpt lat="6.5086" lon="3.36759">
    <name>TP204</name>
  </trkpt>
  <trkpt lat="6.50881" lon="3.36731">
    <name>TP205</name>
  </trkpt>
  <trkpt lat="6.50911" lon="3.36692">
    <name>TP206</name>
  </trkpt>
  <trkpt lat="6.50925" lon="3.36671">
    <name>TP207</name>
  </trkpt>
  <trkpt lat="6.50934" lon="3.36655">
    <name>TP208</name>
  </trkpt>
  <trkpt lat="6.5094" lon="3.36645">
    <name>TP209</name>
  </trkpt>
  <trkpt lat="6.50951" lon="3.36625">
    <name>TP210</name>
  </trkpt>
  <trkpt lat="6.50958" lon="3.36612">
    <name>TP211</name>
  </trkpt>
  <trkpt lat="6.50967" lon="3.36592">
    <name>TP212</name>
  </trkpt>
  <trkpt lat="6.50983" lon="3.36555">
    <name>TP213</name>
  </trkpt>
  <trkpt lat="6.50987" lon="3.3654">
    <name>TP214</name>
  </trkpt>
  <trkpt lat="6.50988" lon="3.36535">
    <name>TP215</name>
  </trkpt>
  <trkpt lat="6.5099" lon="3.36527">
    <name>TP216</name>
  </trkpt>
  <trkpt lat="6.50991" lon="3.36516">
    <name>TP217</name>
  </trkpt>
  <trkpt lat="6.50992" lon="3.36506">
    <name>TP218</name>
  </trkpt>
  <trkpt lat="6.50992" lon="3.36495">
    <name>TP219</name>
  </trkpt>
  <trkpt lat="6.50991" lon="3.36481">
    <name>TP220</name>
  </trkpt>
  <trkpt lat="6.5099" lon="3.3646">
    <name>TP221</name>
  </trkpt>
  <trkpt lat="6.50989" lon="3.36451">
    <name>TP222</name>
  </trkpt>
  <trkpt lat="6.50989" lon="3.36447">
    <name>TP223</name>
  </trkpt>
  <trkpt lat="6.50988" lon="3.36425">
    <name>TP224</name>
  </trkpt>
  <trkpt lat="6.50988" lon="3.36399">
    <name>TP225</name>
  </trkpt>
  <trkpt lat="6.50991" lon="3.36355">
    <name>TP226</name>
  </trkpt>
  <trkpt lat="6.50975" lon="3.36331">
    <name>TP227</name>
  </trkpt>
  <trkpt lat="6.5097471" lon="3.3633103">
    <name>TP228</name>
  </trkpt>
  <trkpt lat="6.50968" lon="3.3633">
    <name>TP229</name>
  </trkpt>
  <trkpt lat="6.50965" lon="3.3633">
    <name>TP230</name>
  </trkpt>
  <trkpt lat="6.5096501" lon="3.3632998">
    <name>TP231</name>
  </trkpt>
  <trkpt lat="6.50966" lon="3.36326">
    <name>TP232</name>
  </trkpt>
  <trkpt lat="6.50967" lon="3.36322">
    <name>TP233</name>
  </trkpt>
  <trkpt lat="6.50967" lon="3.3632">
    <name>TP234</name>
  </trkpt>
  <trkpt lat="6.50967" lon="3.36318">
    <name>TP235</name>
  </trkpt>
  <trkpt lat="6.50966" lon="3.36316">
    <name>TP236</name>
  </trkpt>
  <trkpt lat="6.50966" lon="3.36312">
    <name>TP237</name>
  </trkpt>
  <trkpt lat="6.50965" lon="3.36312">
    <name>TP238</name>
  </trkpt>
  <trkpt lat="6.50964" lon="3.36309">
    <name>TP239</name>
  </trkpt>
  <trkpt lat="6.50963" lon="3.36304">
    <name>TP240</name>
  </trkpt>
  <trkpt lat="6.50959" lon="3.36298">
    <name>TP241</name>
  </trkpt>
  <trkpt lat="6.5095905" lon="3.362981">
    <name>TP242</name>
  </trkpt>
  <trkpt lat="6.50946" lon="3.36297">
    <name>TP243</name>
  </trkpt>
  <trkpt lat="6.50927" lon="3.36297">
    <name>TP244</name>
  </trkpt>
  <trkpt lat="6.50925" lon="3.36297">
    <name>TP245</name>
  </trkpt>
  <trkpt lat="6.50923" lon="3.36298">
    <name>TP246</name>
  </trkpt>
  <trkpt lat="6.50909" lon="3.36299">
    <name>TP247</name>
  </trkpt>
  <trkpt lat="6.50904" lon="3.36299">
    <name>TP248</name>
  </trkpt>
  <trkpt lat="6.5087" lon="3.36305">
    <name>TP249</name>
  </trkpt>
  <trkpt lat="6.50868" lon="3.36306">
    <name>TP250</name>
  </trkpt>
  <trkpt lat="6.50851" lon="3.36309">
    <name>TP251</name>
  </trkpt>
  <trkpt lat="6.50846" lon="3.3631">
    <name>TP252</name>
  </trkpt>
  <trkpt lat="6.50826" lon="3.36314">
    <name>TP253</name>
  </trkpt>
  <trkpt lat="6.50787" lon="3.36324">
    <name>TP254</name>
  </trkpt>
  <trkpt lat="6.50784" lon="3.36325">
    <name>TP255</name>
  </trkpt>
  <trkpt lat="6.50764" lon="3.36329">
    <name>TP256</name>
  </trkpt>
  <trkpt lat="6.50737" lon="3.36337">
    <name>TP257</name>
  </trkpt>
  <trkpt lat="6.50723" lon="3.3634">
    <name>TP258</name>
  </trkpt>
  <trkpt lat="6.50716" lon="3.36342">
    <name>TP259</name>
  </trkpt>
  <trkpt lat="6.50705" lon="3.36345">
    <name>TP260</name>
  </trkpt>
  <trkpt lat="6.50697" lon="3.36347">
    <name>TP261</name>
  </trkpt>
  <trkpt lat="6.50688" lon="3.36349">
    <name>TP262</name>
  </trkpt>
  <trkpt lat="6.5067" lon="3.36353">
    <name>TP263</name>
  </trkpt>
  <trkpt lat="6.50653" lon="3.36357">
    <name>TP264</name>
  </trkpt>
  <trkpt lat="6.50599" lon="3.36372">
    <name>TP265</name>
  </trkpt>
  <trkpt lat="6.5059921" lon="3.363721">
    <name>TP266</name>
  </trkpt>
  <trkpt lat="6.50592" lon="3.36354">
    <name>TP267</name>
  </trkpt>
  <trkpt lat="6.50582" lon="3.36333">
    <name>TP268</name>
  </trkpt>
  <trkpt lat="6.50575" lon="3.36316">
    <name>TP269</name>
  </trkpt>
  <trkpt lat="6.5057" lon="3.36305">
    <name>TP270</name>
  </trkpt>
  <trkpt lat="6.50568" lon="3.36299">
    <name>TP271</name>
  </trkpt>
  <trkpt lat="6.50561" lon="3.36283">
    <name>TP272</name>
  </trkpt>
  <trkpt lat="6.50554" lon="3.36266">
    <name>TP273</name>
  </trkpt>
  <trkpt lat="6.50551" lon="3.3626">
    <name>TP274</name>
  </trkpt>
  <trkpt lat="6.50547" lon="3.36249">
    <name>TP275</name>
  </trkpt>
  <trkpt lat="6.5054669" lon="3.3624929">
    <name>TP276</name>
  </trkpt>
  <trkpt lat="6.50529" lon="3.36246">
    <name>TP277</name>
  </trkpt>
  <trkpt lat="6.5052872" lon="3.3624646">
    <name>TP278</name>
  </trkpt>
  <trkpt lat="6.50538" lon="3.36224">
    <name>TP279</name>
  </trkpt>
  <trkpt lat="6.50561" lon="3.36162">
    <name>TP280</name>
  </trkpt>
  <trkpt lat="6.50561" lon="3.36156">
    <name>TP281</name>
  </trkpt>
  <trkpt lat="6.50559" lon="3.36153">
    <name>TP282</name>
  </trkpt>
  <trkpt lat="6.50557" lon="3.36152">
    <name>TP283</name>
  </trkpt>
  <trkpt lat="6.5055703" lon="3.3615152">
    <name>TP284</name>
  </trkpt>
  <trkpt lat="6.50555" lon="3.3615">
    <name>TP285</name>
  </trkpt>
  <trkpt lat="6.50551" lon="3.36148">
    <name>TP286</name>
  </trkpt>
  <trkpt lat="6.50535" lon="3.36141">
    <name>TP287</name>
  </trkpt>
  <trkpt lat="6.50518" lon="3.36134">
    <name>TP288</name>
  </trkpt>
  <trkpt lat="6.50502" lon="3.36128">
    <name>TP289</name>
  </trkpt>
  <trkpt lat="6.505" lon="3.36127">
    <name>TP290</name>
  </trkpt>
  <trkpt lat="6.50487" lon="3.36123">
    <name>TP291</name>
  </trkpt>
  <trkpt lat="6.50472" lon="3.36118">
    <name>TP292</name>
  </trkpt>
  <trkpt lat="6.50451" lon="3.3611">
    <name>TP293</name>
  </trkpt>
  <trkpt lat="6.50431" lon="3.36102">
    <name>TP294</name>
  </trkpt>
  <trkpt lat="6.50412" lon="3.36095">
    <name>TP295</name>
  </trkpt>
  <trkpt lat="6.50405" lon="3.36093">
    <name>TP296</name>
  </trkpt>
  <trkpt lat="6.50389" lon="3.36087">
    <name>TP297</name>
  </trkpt>
  <trkpt lat="6.50373" lon="3.36081">
    <name>TP298</name>
  </trkpt>
  <trkpt lat="6.50372" lon="3.3608">
    <name>TP299</name>
  </trkpt>
  <trkpt lat="6.50357" lon="3.36075">
    <name>TP300</name>
  </trkpt>
  <trkpt lat="6.50356" lon="3.36074">
    <name>TP301</name>
  </trkpt>
  <trkpt lat="6.50354" lon="3.36074">
    <name>TP302</name>
  </trkpt>
  <trkpt lat="6.50329" lon="3.36063">
    <name>TP303</name>
  </trkpt>
  <trkpt lat="6.5032926" lon="3.3606286">
    <name>TP304</name>
  </trkpt>
  <trkpt lat="6.50342" lon="3.36028">
    <name>TP305</name>
  </trkpt>
  <trkpt lat="6.50346" lon="3.36022">
    <name>TP306</name>
  </trkpt>
  <trkpt lat="6.50351" lon="3.36016">
    <name>TP307</name>
  </trkpt>
  <trkpt lat="6.50366" lon="3.36001">
    <name>TP308</name>
  </trkpt>
  <trkpt lat="6.50372" lon="3.35996">
    <name>TP309</name>
  </trkpt>
  <trkpt lat="6.5037249" lon="3.3599569">
    <name>TP310</name>
  </trkpt>
  <trkpt lat="6.50327" lon="3.35953">
    <name>TP311</name>
  </trkpt>
  <trkpt lat="6.5032738" lon="3.3595307">
    <name>TP312</name>
  </trkpt>
  <trkpt lat="6.50306" lon="3.35975">
    <name>TP313</name>
  </trkpt>
  <trkpt lat="6.50303" lon="3.35972">
    <name>TP314</name>
  </trkpt>
  <trkpt lat="6.50278" lon="3.35945">
    <name>TP315</name>
  </trkpt>
  <trkpt lat="6.50273" lon="3.35937">
    <name>TP316</name>
  </trkpt>
  <trkpt lat="6.5027254" lon="3.3593658">
    <name>TP317</name>
  </trkpt>
  <trkpt lat="6.50256" lon="3.35946">
    <name>TP318</name>
  </trkpt>
  <trkpt lat="6.50247" lon="3.35949">
    <name>TP319</name>
  </trkpt>
  <trkpt lat="6.50237" lon="3.35952">
    <name>TP320</name>
  </trkpt>
  <trkpt lat="6.50225" lon="3.35953">
    <name>TP321</name>
  </trkpt>
  <trkpt lat="6.50201" lon="3.3596">
    <name>TP322</name>
  </trkpt>
  <trkpt lat="6.50189" lon="3.35962">
    <name>TP323</name>
  </trkpt>
  <trkpt lat="6.50176" lon="3.35964">
    <name>TP324</name>
  </trkpt>
  <trkpt lat="6.50163" lon="3.35964">
    <name>TP325</name>
  </trkpt>
  <trkpt lat="6.50152" lon="3.35964">
    <name>TP326</name>
  </trkpt>
  <trkpt lat="6.50146" lon="3.35963">
    <name>TP327</name>
  </trkpt>
  <trkpt lat="6.50129" lon="3.35959">
    <name>TP328</name>
  </trkpt>
  <trkpt lat="6.50126" lon="3.35958">
    <name>TP329</name>
  </trkpt>
  <trkpt lat="6.50112" lon="3.35953">
    <name>TP330</name>
  </trkpt>
  <trkpt lat="6.50095" lon="3.35948">
    <name>TP331</name>
  </trkpt>
  <trkpt lat="6.50078" lon="3.35942">
    <name>TP332</name>
  </trkpt>
  <trkpt lat="6.50061" lon="3.35936">
    <name>TP333</name>
  </trkpt>
  <trkpt lat="6.50043" lon="3.3593">
    <name>TP334</name>
  </trkpt>
  <trkpt lat="6.50035" lon="3.35928">
    <name>TP335</name>
  </trkpt>
  <trkpt lat="6.50018" lon="3.35921">
    <name>TP336</name>
  </trkpt>
  <trkpt lat="6.49977" lon="3.35907">
    <name>TP337</name>
  </trkpt>
  <trkpt lat="6.49973" lon="3.35905">
    <name>TP338</name>
  </trkpt>
  <trkpt lat="6.49937" lon="3.35892">
    <name>TP339</name>
  </trkpt>
  <trkpt lat="6.49926" lon="3.35886">
    <name>TP340</name>
  </trkpt>
  <trkpt lat="6.49924" lon="3.35882">
    <name>TP341</name>
  </trkpt>
  <trkpt lat="6.49922" lon="3.3588">
    <name>TP342</name>
  </trkpt>
  <trkpt lat="6.49921" lon="3.35874">
    <name>TP343</name>
  </trkpt>
  <trkpt lat="6.4992124" lon="3.3587364">
    <name>TP344</name>
  </trkpt>
  <trkpt lat="6.49914" lon="3.35874">
    <name>TP345</name>
  </trkpt>
  <trkpt lat="6.49908" lon="3.35873">
    <name>TP346</name>
  </trkpt>
  <trkpt lat="6.49905" lon="3.35871">
    <name>TP347</name>
  </trkpt>
  <trkpt lat="6.49904" lon="3.3587">
    <name>TP348</name>
  </trkpt>
  <trkpt lat="6.49902" lon="3.35869">
    <name>TP349</name>
  </trkpt>
  <trkpt lat="6.49901" lon="3.35868">
    <name>TP350</name>
  </trkpt>
  <trkpt lat="6.499" lon="3.35867">
    <name>TP351</name>
  </trkpt>
  <trkpt lat="6.49897" lon="3.35864">
    <name>TP352</name>
  </trkpt>
  <trkpt lat="6.49896" lon="3.35861">
    <name>TP353</name>
  </trkpt>
  <trkpt lat="6.49895" lon="3.35858">
    <name>TP354</name>
  </trkpt>
  <trkpt lat="6.49895" lon="3.35855">
    <name>TP355</name>
  </trkpt>
  <trkpt lat="6.49895" lon="3.35853">
    <name>TP356</name>
  </trkpt>
  <trkpt lat="6.49896" lon="3.35851">
    <name>TP357</name>
  </trkpt>
  <trkpt lat="6.49896" lon="3.35849">
    <name>TP358</name>
  </trkpt>
  <trkpt lat="6.49897" lon="3.35847">
    <name>TP359</name>
  </trkpt>
  <trkpt lat="6.49898" lon="3.35845">
    <name>TP360</name>
  </trkpt>
  <trkpt lat="6.4989759" lon="3.3584493">
    <name>TP361</name>
  </trkpt>
  <trkpt lat="6.4989759" lon="3.3584493">
    <name>TP362</name>
  </trkpt>
  <trkpt lat="6.4989759" lon="3.3584493">
    <name>TP363</name>
  </trkpt>
  </trkseg>
</trk>
</gpx>